IRIDIUM 159             
1 43578U 18061K   24249.73109284  .00001005  00000+0  35169-3 0  9990
2 43578  86.4004 328.1310 0002136  93.9945 266.1495 14.34218482320296
IRIDIUM 180             
1 43922U 19002A   24249.66081094  .00000181  00000+0  57413-4 0  9990
2 43922  86.3907 265.0066 0002375  90.0790 270.0678 14.34218735295893
IRIDIUM 176             
1 43923U 19002B   24249.59157899  .00001168  00000+0  18133-3 0  9991
2 43923  86.6038 265.0509 0002547  92.2780 267.8729 14.72250953303675
IRIDIUM 168             
1 43924U 19002C   24249.51494133  .00000012  00000+0 -26534-5 0  9993
2 43924  86.3913 265.1266 0002248  92.2653 267.8800 14.34217601295854
IRIDIUM 173             
1 43925U 19002D   24249.57202370  .00000264  00000+0  87034-4 0  9999
2 43925  86.3906 265.0183 0002370  89.0727 271.0740 14.34218503295858
IRIDIUM 169             
1 43926U 19002E   24250.15779575  .00001146  00000+0  36797-3 0  9991
2 43926  86.4199 296.4224 0001933  37.8726 322.2608 14.38617935296918
IRIDIUM 172             
1 43927U 19002F   24250.54243876  .00000019  00000+0 -29561-6 0  9998
2 43927  86.3905 264.6183 0002175  92.0923 268.0522 14.34217491295993
IRIDIUM 175             
1 43928U 19002G   24250.46965372  .00001387  00000+0  21606-3 0  9999
2 43928  86.1495 233.2350 0002714  84.2129 275.9397 14.72251498303796
